H1 CPF  1  MCC 2022  2 24 12  5551 larets
H2  0304206 5557    27944 2022 02 23 23 55 00 2022 03 01 00 07 00   180 1 1  0 0 0
H9
10 0 59637 86100.000000 0     -5910371.872     -3370882.493     -1894657.515
10 0 59637 86280.000000 0     -5629057.012     -2886125.668     -3140558.622
10 0 59638    60.000000 0     -5128987.746     -2306625.486     -4271377.144
10 0 59638   240.000000 0     -4426382.785     -1659067.541     -5245810.937
10 0 59638   420.000000 0     -3545527.892      -972048.176     -6028371.087
10 0 59638   600.000000 0     -2517879.743      -274815.827     -6590643.607
10 0 59638   780.000000 0     -1380897.729       403966.403     -6912270.613
10 0 59638   960.000000 0      -176656.404      1037383.195     -6981633.204
10 0 59638  1140.000000 0      1049705.642      1601317.377     -6796233.909
10 0 59638  1320.000000 0      2251658.826      2075356.127     -6362783.082
10 0 59638  1500.000000 0      3383035.504      2443528.995     -5696977.946
10 0 59638  1680.000000 0      4399799.213      2694850.100     -4822972.491
10 0 59638  1860.000000 0      5261774.216      2823648.887     -3772552.542
10 0 59638  2040.000000 0      5934271.062      2829675.387     -2584020.501
10 0 59638  2220.000000 0      6389533.106      2717972.876     -1300820.779
10 0 59638  2400.000000 0      6607933.611      2498518.337        30056.949
10 0 59638  2580.000000 0      6578851.888      2185642.822      1359833.309
10 0 59638  2760.000000 0      6301178.535      1797261.418      2639772.325
10 0 59638  2940.000000 0      5783428.334      1353956.111      3823014.603
10 0 59638  3120.000000 0      5043446.833       877956.147      4866326.500
10 0 59638  3300.000000 0      4107735.197       392074.549      5731683.349
10 0 59638  3480.000000 0      3010437.797       -81345.795      6387633.011
10 0 59638  3660.000000 0      1792042.798      -521425.187      6810392.271
10 0 59638  3840.000000 0       497863.815      -909637.745      6984659.097
10 0 59638  4020.000000 0      -823650.483     -1230571.881      6904127.933
10 0 59638  4200.000000 0     -2122716.656     -1472532.341      6571695.513
10 0 59638  4380.000000 0     -3350067.728     -1627963.287      5999363.199
10 0 59638  4560.000000 0     -4458808.451     -1693681.294      5207846.132
10 0 59638  4740.000000 0     -5406224.950     -1670916.450      4225877.343
10 0 59638  4920.000000 0     -6155469.764     -1565152.732      3089209.874
10 0 59638  5100.000000 0     -6677049.626     -1385771.113      1839348.332
10 0 59638  5280.000000 0     -6950056.350     -1145513.147       522043.096
10 0 59638  5460.000000 0     -6963063.772      -859784.817      -814411.461
10 0 59638  5640.000000 0     -6714633.331      -545834.634     -2120994.851
10 0 59638  5820.000000 0     -6213401.359      -221851.247     -3349810.111
10 0 59638  6000.000000 0     -5477747.656        93970.312     -4455884.379
10 0 59638  6180.000000 0     -4535057.919       384348.679     -5398838.227
10 0 59638  6360.000000 0     -3420630.347       633772.335     -6144350.226
10 0 59638  6540.000000 0     -2176287.932       829248.041     -6665368.258
10 0 59638  6720.000000 0      -848768.531       960910.847     -6943037.366
10 0 59638  6900.000000 0       512042.707      1022475.354     -6967330.712
10 0 59638  7080.000000 0      1854972.384      1011511.859     -6737380.674
10 0 59638  7260.000000 0      3129465.320       929540.245     -6261513.039
10 0 59638  7440.000000 0      4287478.077       781938.447     -5556967.082
10 0 59638  7620.000000 0      5285293.573       577666.851     -4649312.966
10 0 59638  7800.000000 0      6085203.182       328819.248     -3571574.490
10 0 59638  7980.000000 0      6656986.065        50015.305     -2363066.133
10 0 59638  8160.000000 0      6979118.899      -242340.677     -1067976.894
10 0 59638  8340.000000 0      7039649.632      -530900.513       266259.231
10 0 59638  8520.000000 0      6836681.953      -798269.541      1590736.258
10 0 59638  8700.000000 0      6378443.605     -1027915.799      2856917.573
10 0 59638  8880.000000 0      5682928.394     -1205040.537      4018462.505
10 0 59638  9060.000000 0      4777135.772     -1317363.964      5032947.997
10 0 59638  9240.000000 0      3695957.505     -1355787.841      5863416.893
10 0 59638  9420.000000 0      2480772.356     -1314900.353      6479696.484
10 0 59638  9600.000000 0      1177820.059     -1193307.738      6859448.565
10 0 59638  9780.000000 0      -163576.524      -993779.931      6988930.800
10 0 59638  9960.000000 0     -1492875.125      -723203.227      6863453.549
10 0 59638 10140.000000 0     -2760196.926      -392344.042      6487533.196
10 0 59638 10320.000000 0     -3918176.956       -15429.386      5874746.627
10 0 59638 10500.000000 0     -4923733.951       390442.944      5047285.000
10 0 59638 10680.000000 0     -5739700.824       806045.457      4035202.082
10 0 59638 10860.000000 0     -6336248.774      1210887.716      2875368.076
10 0 59638 11040.000000 0     -6692042.270      1584174.196      1610155.675
10 0 59638 11220.000000 0     -6795070.904      1905808.662       285894.272
10 0 59638 11400.000000 0     -6643105.998      2157395.791     -1048856.335
10 0 59638 11580.000000 0     -6243746.382      2323184.297     -2345135.872
10 0 59638 11760.000000 0     -5614052.687      2390903.181     -3555433.105
10 0 59638 11940.000000 0     -4779783.590      2352444.800     -4635472.124
10 0 59638 12120.000000 0     -3774281.627      2204356.768     -5545847.145
10 0 59638 12300.000000 0     -2637078.793      1948124.849     -6253441.679
10 0 59638 12480.000000 0     -1412296.548      1590238.221     -6732592.837
10 0 59638 12660.000000 0      -146907.002      1142035.161     -6965969.284
10 0 59638 12840.000000 0      1111066.129       619339.555     -6945147.754
10 0 59638 13020.000000 0      2314352.123        41903.382     -6670895.058
10 0 59638 13200.000000 0      3418195.276      -567332.729     -6153142.152
10 0 59638 13380.000000 0      4382013.061     -1183135.727     -5410649.771
10 0 59638 13560.000000 0      5170899.914     -1779006.049     -4470374.866
10 0 59638 13740.000000 0      5756930.061     -2328301.710     -3366542.799
10 0 59638 13920.000000 0      6120200.706     -2805412.955     -2139437.282
10 0 59638 14100.000000 0      6249563.485     -3186934.693      -833940.343
10 0 59638 14280.000000 0      6143002.014     -3452778.250       502125.431
10 0 59638 14460.000000 0      5807632.558     -3587165.372      1819786.675
10 0 59638 14640.000000 0      5259320.619     -3579449.418      3070766.243
10 0 59638 14820.000000 0      4521928.542     -3424715.684      4209295.389
10 0 59638 15000.000000 0      3626247.700     -3124133.572      5193808.480
10 0 59638 15180.000000 0      2608671.030     -2685049.774      5988456.806
10 0 59638 15360.000000 0      1509674.652     -2120817.128      6564382.258
10 0 59638 15540.000000 0       372185.206     -1450375.770      6900716.726
10 0 59638 15720.000000 0      -760100.260      -697605.689      6985288.306
10 0 59638 15900.000000 0     -1844378.927       109525.763      6815025.973
10 0 59638 16080.000000 0     -2840340.558       939993.653      6396062.916
10 0 59638 16260.000000 0     -3711654.477      1760892.749      5743536.909
10 0 59638 16440.000000 0     -4427302.007      2538726.497      4881088.833
10 0 59638 16620.000000 0     -4962711.238      3240768.593      3840059.838
10 0 59638 16800.000000 0     -5300644.389      3836443.069      2658395.292
10 0 59638 16980.000000 0     -5431796.888      4298664.846      1379287.128
10 0 59638 17160.000000 0     -5355076.874      4605078.066        49590.599
10 0 59638 17340.000000 0     -5077539.935      4739120.440     -1281925.498
10 0 59638 17520.000000 0     -4613980.218      4690858.660     -2566419.384
10 0 59638 17700.000000 0     -3986190.472      4457543.288     -3756825.512
10 0 59638 17880.000000 0     -3221934.009      4043851.228     -4809617.323
10 0 59638 18060.000000 0     -2353692.236      3461813.259     -5686403.541
10 0 59638 18240.000000 0     -1417261.626      2730441.440     -6355304.624
10 0 59638 18420.000000 0      -450260.876      1875073.677     -6792071.636
10 0 59638 18600.000000 0       509383.683       926467.983     -6980911.838
10 0 59638 18780.000000 0      1424913.418       -80312.016     -6915016.433
10 0 59638 18960.000000 0      2262131.990     -1107187.193     -6596785.310
10 0 59638 19140.000000 0      2990670.452     -2114488.415     -6037742.249
10 0 59638 19320.000000 0      3585088.053     -3062472.049     -5258150.589
10 0 59638 19500.000000 0      4025778.516     -3912888.175     -4286329.335
10 0 59638 19680.000000 0      4299639.659     -4630537.840     -3157667.310
10 0 59638 19860.000000 0      4400482.512     -5184753.261     -1913369.794
10 0 59638 20040.000000 0      4329159.709     -5550739.900      -598962.490
10 0 59638 20220.000000 0      4093393.768     -5710704.481       737397.236
10 0 59638 20400.000000 0      3707311.593     -5654704.999      2046728.238
10 0 59638 20580.000000 0      3190707.006     -5381173.737      3281072.523
10 0 59638 20760.000000 0      2568069.492     -4897086.819      4395290.259
10 0 59638 20940.000000 0      1867438.760     -4217778.228      5348726.463
10 0 59638 21120.000000 0      1119145.204     -3366412.018      6106684.556
10 0 59638 21300.000000 0       354496.550     -2373143.049      6641654.789
10 0 59638 21480.000000 0      -395527.023     -1274012.557      6934259.188
10 0 59638 21660.000000 0     -1101513.098      -109628.381      6973905.430
10 0 59638 21840.000000 0     -1736754.301      1076330.671      6759143.249
10 0 59638 22020.000000 0     -2278247.861      2238737.503      6297714.032
10 0 59638 22200.000000 0     -2707526.283      3332716.418      5606295.978
10 0 59638 22380.000000 0     -3011294.246      4315370.442      4709948.224
10 0 59638 22560.000000 0     -3181852.683      5147480.230      3641257.450
99
